#dP2021  1 16 12  0  0.00000000      96 __u+U ITR00 EXT  IAC
## 2140 561600.00000000   900.00000000 59230 0.5000000000000
+  114   C06C07C08C10C11C12C13C14C16C19C20C21C22C23C24C25C26
+        C27C28C29C30C32C33C34C35C36C37C38C39C40C43C44C45C46
+        E01E02E03E04E05E07E08E09E11E12E13E14E15E18E19E21E24
+        E25E26E27E30E31E33E36G01G02G03G04G05G06G07G08G09G10
+        G11G12G13G14G15G16G17G18G19G20G21G22G23G24G25G26G27
+        G28G29G30G31G32J01J02J03R01R02R03R04R05R07R08R09R11
+        R12R13R14R15R16R17R18R19R20R21R22R24  0  0  0  0  0
++        10 11 11 11  9  8 10 10 10  8  9  9  9  9  8  9  9
++         8 10  8  8  9  9 10  8  8 10 13 10 12  9  9 10 11
++         8  9  9  8  8  8  8  8  9  7  9  9  8  8  8  9  8
++         8  7  8  8  8 10  8  7  8  8  8  7  7  8  9  8  8
++         9  8  8  8  8  9  8  7  8  8  8  8  6  9  7  8  8
++         9  7  7  7  7 10 10  9  9  8  9  9  9  7  9 10  9
++         8  9  9  9  9  9  8  9  8 10 10  8  0  0  0  0  0
%c M  cc GPS ccc cccc cccc cccc cccc ccccc ccccc ccccc ccccc
%c cc cc ccc ccc cccc cccc cccc cccc ccccc ccccc ccccc ccccc
%f  0.0000000  0.000000000  0.00000000000  0.000000000000000
%f  0.0000000  0.000000000  0.00000000000  0.000000000000000
%i    0    0    0    0      0      0      0      0         0
%i    0    0    0    0      0      0      0      0         0
/* IAC                                ULTRA-RAPID PREDICTION
/* S/V CLOCKS ARE ALIGNED TO GNSS TIME                      
/* G:C1WC2W R:C1PC2P E:C1XC5X C:C2IC6I J:C1CC2S             
/* PCV:IGS14_2134 OL/AL:FES2004  NONE     YN ORB:CoN CLK:CoN
*  2021 01 17  4 15  0.00000000
PC06 -18066.144049  22346.575038  31129.687462     11.671150
PC07 -18212.720301  38324.981584     91.984348   -234.652347
PC08  -4233.970380  28134.741732 -30848.299403   -904.229676
PC10  -8836.440850  39914.784999 -10976.581220   -102.701347
PC11 -22504.623303 -11785.018251  11667.896813   -891.534702
PC12  -5057.740082 -15825.126794  22467.714685    734.862478
PC13   7492.032524  36089.246862 -20119.429476    101.167061
PC14 -11990.451008 -10503.861958 -22882.187225    -79.251243
PC16 -17054.193539  22151.778097  31585.823730   -662.457947
PC19  18021.805421   1027.825370  21300.198896    693.737726
PC20   5103.945974  17274.319585  21332.173110   -909.626106
PC21  11506.274314 -23912.632078  -8596.588422   -796.285984
PC22  20870.002810 -16244.237365   8870.802132   -847.254296
PC23 -13945.486724   8689.476614  22553.980134   -880.903649
PC24 -11241.245716 -25472.240834   2124.068608   -743.158373
PC25 -18306.794711 -10942.613163  18001.823332   -900.114781
PC26    652.429174 -24326.771300 -13700.982026    961.853160
PC27  -6257.867158  14881.066781 -22773.736339    467.705552
PC28 -23517.922529   5689.020552 -13900.386273   -120.805578
PC29  27137.505948   5752.290585  -3058.221838    339.631276
PC30  14688.599853  14881.006079 -18491.094485    432.265704
PC32 -11326.778446  24016.331166   8600.390888   -884.100671
PC33 -18013.029582  -1005.841581 -21290.575517   -918.657554
PC34 -15250.255472 -14779.694224  18088.275713   -761.396384
PC35  23508.532034  -6361.962023  13656.985998   -462.046030
PC36  18014.902114  11670.263832 -17808.993576   -775.333257
PC37  -1847.944708  23863.223196  14340.601200   -860.680211
PC38  -4150.699527  30414.303054 -28817.794837    124.369104
PC39 -13892.901341  23493.263704  32102.873095     27.498530
PC40 -16936.710464  37809.618033  -8219.131866    122.034820
PC43 -26977.045008  -6184.062888   3469.140195   -555.558458
PC44   6070.228203 -15137.704319  22645.473225     -9.407940
PC45  13770.080976  -8777.882779 -22631.303848    337.312669
PC46  11752.881377  25113.874762  -2935.213918    448.631903
PE01  15197.434884   8801.339869 -23824.627799  -1026.402438
PE02 -15220.416862  -8715.647897  23846.398195    191.610870
PE03 -24385.639941  -1840.835501 -16691.370168   -388.190256
PE04  26820.574911 -12522.978823   -323.788714   -690.435585
PE05  -7593.718954 -15337.414091 -24155.124753   -312.262939
PE07 -13467.218557  19755.498385  17455.118829   -488.682183
PE08 -26667.602053  12843.560281    604.910598   6060.897120
PE09  13245.129076 -19739.694880 -17632.837508   5796.534120
PE11   2441.571025 -17370.687696  23841.330725   6458.449414
PE12  20359.267211  -2832.507521  21313.794565   5402.906773
PE13  -2720.811115  17120.597507 -23980.873798    410.404249
PE14 -18053.511263  -9395.106196  14576.869198  -1297.425978
PE15 -20262.725331   2894.189428 -21367.147639    833.903116
PE18  12321.751587  17533.116163 -23090.025793  -1418.017460
PE19  23020.548453   3522.066550  18272.838583    180.357006
PE21   6344.725021  25792.175391 -13054.816937   -643.276237
PE24   7035.370559 -28092.825570  -6212.614546   -693.711767
PE25  -6234.845190 -25906.583424  12908.104612   -524.481446
PE26  16774.125041  21316.635357 -11832.914574   2256.388689
PE27  -6506.864765  28312.013058   5637.246011     49.516634
PE30 -15729.703104  13319.534784  21227.335822   3256.698776
PE31  15442.976182 -14198.692729 -20880.468189   -477.424411
PE33  25863.682992  13000.136237   6211.185412   -464.922072
PE36 -16367.645940 -21259.128040  12511.729004    453.214789
PG01  20824.687028  12416.587039  10990.618835    778.849066
PG02 -11905.794650 -21578.984074  10540.994781   -566.829584
PG03  14895.852567   2558.297261  21754.823669    -58.311209
PG04  24655.190786   2413.186726   9649.221510   -173.316217
PG05  -5522.655877 -20816.332583 -15577.804429    -31.194483
PG06    642.719508 -18401.053352  19188.816368     -4.534086
PG07  17168.229101  -2073.246313 -19954.820053     24.507760
PG08  20170.873371   6682.341967 -16110.783656     -6.884514
PG09  25514.077364  -7222.311444  -1774.114626   -313.549131
PG10 -11680.145245  22889.350306  -6030.217006    -40.893221
PG11  23530.207003  11512.890656  -3406.347926    -50.856898
PG12 -12871.523367  -7479.800492  21759.898586     11.885633
PG13 -10563.828638 -13338.657156 -20561.742320     86.756129
PG14  13749.326902 -21394.393918  -7663.254720     86.588765
PG15 -21499.398352  -4932.251990 -15404.634984   -175.803742
PG16   2267.948758  21412.952850 -15461.562001   -266.223481
PG17  15293.096925 -13891.110101  17117.058355    381.225101
PG18 -15169.207309   4896.616287 -21258.786684    341.784723
PG19   7942.779895 -14589.776053  20420.761041    -50.895704
PG20 -14861.619163  14353.088271 -16599.097827    525.132705
PG21  21078.063991  16170.529199   4129.345514     87.487300
PG22  12761.334802  11841.684876  20295.418163   -696.827734
PG23 -15534.833107  15240.141248 -15225.535980    116.342102
PG24 -21537.777312 -14570.301831   6106.203442      3.589391
PG25 -16416.236913   7958.237353  18951.728627     61.343684
PG26  -3653.093516  25751.008521  -4686.873080     31.075757
PG27   7867.765401  13341.662915 -21772.391622    -57.582126
PG28  12572.274540 -23141.959722  -3566.286714    628.672209
PG29 -26182.736997   4463.519652  -1142.740846   -277.256200
PG30   9113.765457 -13206.282601 -21096.849280   -370.148052
PG31    888.112299  19830.962210  17338.954265    -94.365975
PG32 -13798.528260  15218.388354  16834.713980     14.685778
PJ01 -29194.216665  30507.116290   4173.046955   -336.772873
PJ02 -27371.481305  25149.302416  24798.979005      0.811056
PJ03 -30328.687820  17599.504591 -18816.199484     -0.137531
PR01 -13215.385331  -2233.257271 -21708.443258     73.603278
PR02 -20628.518196  13462.274703  -6466.057302    463.179627
PR03 -13675.200569  18542.690646  10923.995210     29.307268
PR04    736.602224  12929.785205  21996.271262     70.313450
PR05  14826.900006    169.459234  20768.991829     64.889293
PR07  13369.967642 -18524.594071 -11364.452894    -42.188063
PR08   -773.844372 -13012.625995 -21880.501693    -56.884610
PR09   9663.316114  -7669.634957 -22303.470505     19.016415
PR11  -7133.497740 -24045.920830   4636.215799      4.475231
PR12 -11660.344056 -11719.856237  19458.394431    197.308862
PR13  -9500.709190   7231.813277  22520.671595    -49.432400
PR14  -1700.062554  22360.240628  12172.265221     59.939956
PR15   6918.971235  24040.551904  -4949.505712    105.861199
PR16  12093.705585  10411.426709 -19879.136654    -10.285932
PR17  -5314.510549   9285.177607 -23141.822441    391.933874
PR18  12269.785890  13116.901089 -18116.366418     63.431026
PR19  22711.652483  10841.889757  -4144.589475   -128.206675
PR20  20629.249464    915.103009  15019.864795   -431.297747
PR21   4070.313306  -9678.942066  23253.457296   -180.939943
PR22 -13130.975875 -13140.069425  17424.377932    -92.900771
PR24 -20331.305181     40.795721 -15388.767738     28.079360
EOF
